FENGYUN 1C DEB          
1 31655U 99025CBM 17343.20922803  .00001385  00000-0  16783-2 0  9993
2 31655  99.2910  67.5973 0331524 334.2848  50.9203 13.47149689201890
